#dP2026  6  5  0  0  0.00000000     289 d+D   IGc20 FIT AIUB
## 2421 432000.00000000   300.00000000 61196 0.0000000000000
+  116   G01G02G03G04G05G06G07G08G09G10G11G12G13G14G15G16G17
+        G18G19G20G21G22G23G24G25G26G27G28G29G30G31G32R02R03
+        R04R05R06R07R08R09R11R12R14R15R16R17R18R19R20R21R22
+        R24R26E02E03E04E05E06E07E08E09E10E11E12E13E14E15E16
+        E18E19E21E23E25E26E27E28E29E30E31E32E33E34E36C06C07
+        C08C11C12C13C14C19C20C21C22C23C24C25C26C27C28C29C30
+        C31C32C33C34C35C36C37C38C39C41C42J02J03J04  0  0  0
++         5  5  5  5  5  5  5  5  5  5  5  5  5  5  5  5  5
++         5  5  5  5  5  5  5  5  5  5  5  5  5  5  5  5  5
++         5  5  5  5  5  5  5  5  5  5  5  5  5  5  5  5  5
++         5  5  5  5  5  5  5  5  5  5  5  5  5  5  5  5  5
++         5  5  5  5  5  5  5  5  5  5  5  5  5  5  5  5  5
++         5  5  5  5  5  5  5  5  5  5  5  5  5  5  5  5  5
++         5  5  5  5  5  5  5  5  5  5  5  5  5  5  0  0  0
%c M  cc GPS ccc cccc cccc cccc cccc ccccc ccccc ccccc ccccc
%c cc cc ccc ccc cccc cccc cccc cccc ccccc ccccc ccccc ccccc
%f  1.2500000  1.025000000  0.00000000000  0.000000000000000
%f  0.0000000  0.000000000  0.00000000000  0.000000000000000
%i    0    0    0    0      0      0      0      0         0
%i    0    0    0    0      0      0      0      0         0
/* Center for Orbit Determination in Europe (CODE)                              
/* MGEX orbits and clocks for year-day 2026-1560                                
/* Middle day of a 3-day long-arc multi-GNSS solution                           
/* Systems considered: GPS/GLONASS/Galileo/BeiDou/QZSS                          
/* Product reference - DOI 10.48620/97775                                       
/* PCV:IGS20_2417 OL/AL:FES2014b NONE     YN ORB:CoN CLK:CoN                    
*  2026  6  5  7  0  0.00000000
PG01   6409.971165 -17456.962419 -18942.645048    256.229217
PG02  14618.086906 -18697.445373 -10918.749302    112.677961
PG03  -3770.130625 -17667.510682 -19715.214817    434.368046
PG04    394.171915 -26378.918352   2122.324784     59.183391
PG05 -10293.346246  10914.227069  21743.354870   -233.775752
PG06 -23524.664258   2858.959830 -12092.332369   -595.256791
PG07  -9834.492137 -12494.364550  21932.497492   -192.388617
PG08   6585.234259 -23499.292058   9677.138640    428.434875
PG09  -7859.667577 -22501.956458  11540.102514    741.265582
PG10  23707.344119  10952.526455  -5477.030822   -580.020981
PG11 -23735.467731  11813.009189    492.442327   -317.113090
PG12    859.006062  17866.694373 -19917.654613   -607.175473
PG13   1436.280890  17173.254394 -20274.095539    345.016133
PG14 -23359.191699 -12716.457007  -2589.459058    747.924250
PG15  -2845.471854  24713.014928   8698.256425    417.543104
PG16  16314.063461  -5348.219653  19985.652991    275.756157
PG17 -13064.553128 -11024.687218 -19889.948664   -149.397636
PG18  11888.073163  10400.111130  21445.680995   -335.448927
PG19 -15400.071386    157.788334 -21661.567086    701.360316
PG20 -10570.028145  19366.192983  14867.361052    183.640126
PG21 -18824.716857   3093.501548  18496.745379    411.179041
PG22 -22885.004706  -9348.287223  -8955.011749     10.532141
PG23  19803.284321  16742.915843   6465.536854    655.251032
PG24 -10015.678539  19994.047070 -14600.794030     45.915410
PG25  13831.652035  18981.157247 -13023.878113    417.182823
PG26  23354.671368    774.123450  12751.768482   -372.077842
PG27  12643.441097 -14862.088490  17455.132782      0.403108
PG28  22963.565710  -2555.708173 -13110.147769   -509.253990
PG29   4916.758668  23774.658614  10538.407544   -307.451338
PG30 -20545.568053  -2914.571578  16927.410862    248.049211
PG31  24788.392118  -9144.909824  -4283.738541   -144.489777
PG32  14571.739177   4983.432453 -21384.318806     92.317099
PR02  -9841.960448   4268.614327  23190.344985     12.184166
PR03  -1149.599078  21012.166663  14505.590541     14.414734
PR04   7242.220761  24382.764651  -1983.800332    359.353723
PR05  11788.727853  14843.237104 -17069.126186    169.158115
PR06  10348.563409  -2868.340011 -23132.302358    -19.245590
PR07   1225.413771 -20876.429126 -14531.099829    122.055409
PR08  -7770.625383 -24157.156426   2468.126735     -5.048580
PR09  22103.278220  -1630.438383  12571.923756    330.282344
PR11 -10017.617038 -12334.377325  19976.942054      7.124452
PR12 -23437.386366  -8604.309214   5242.917885     69.961481
PR14  -8240.019147   9170.357181 -22315.356295     32.799035
PR15  10574.819811  12437.398751 -19569.579316     55.543737
PR16  23500.848294   8496.266220  -4994.375046     50.244176
PR17 -13961.923242  19612.579751   8358.631345    301.942895
PR18  -2069.900239  15158.232589  20432.957768    264.770895
PR19  12888.200136   2282.490545  21895.720986     50.379079
PR20  19956.383273 -12081.136934  10290.808610    233.349426
PR21  16199.491019 -19116.477890  -4874.667666   -313.980461
PR22    495.210920 -14457.877325 -20986.419168    129.244227
PR24 -19441.270846  13214.780345  -9863.159254   -169.598586
PR26  -6327.607859 -24693.774843  -1206.708796    -27.143587
PE02  23884.436001   7332.817791  15879.582370     45.152404
PE03  17217.095526  -1170.202410 -24057.664457    -21.149969
PE04 -14739.032673  21505.656270  14005.934674   -164.727991
PE05   9574.040582  19688.278886 -19911.200378     39.523644
PE06  -9939.601176  27379.227331   5236.803852   -280.496725
PE07   3738.335740 -29097.555982   4044.251907    -68.413253
PE08  14760.215816 -21433.320637 -14129.110339   -158.683919
PE09  -3836.114971  29052.749455  -4069.080762   -311.967195
PE10 -15465.596067  17119.491980  18532.838099   -796.838048
PE11  -4059.031493  17266.413069  23683.024869   5198.908278
PE12 -23179.816211  14550.477413  11289.113486    -49.566077
PE13   4571.404988 -17257.432994 -23610.532232    -56.355150
PE14   5256.735464 -32011.791091   3229.191171   3428.657348
PE15  23581.272566 -14268.443417 -10781.142949   -263.714056
PE16   5938.240864  22687.208682 -18040.078561    -36.571134
PE18  -2872.451131  23107.611661   -849.674173   2857.591021
PE19 -16951.988605     62.450812  24272.174169   3007.368158
PE21 -20581.306244 -21186.659314   1944.734108   -747.424545
PE23 -23928.016334  -7243.801984 -15857.148256    -37.412996
PE25  20282.378992  21417.286385  -2478.644882     21.902740
PE26 -16801.554620 -10115.752075 -22172.268391    324.395281
PE27  -4816.269626 -22431.622726  18702.359890  -1007.974529
PE28 -17836.217865  12713.847718  19908.045066    -48.766350
PE29  -9760.461885 -19640.847089  19878.911257   -212.843279
PE30  12976.870885 -11077.338038  24180.798951  -1118.672195
PE31 -13540.928588  10423.617932 -24160.422967   -146.433012
PE32  17842.894555 -12670.560309 -19933.353463     13.579742
PE33 -28270.250249   2801.390527  -8312.559577    -17.866877
PE34  28301.770804  -2972.696913   8150.768585   -258.439233
PE36  16557.660284  10126.118244  22341.678853   -575.508363
PC06  -6710.680734  22219.538738  35294.895589    292.444776
PC07 -25252.905594  25469.381560 -22250.737859    -25.442189
PC08 -14853.988272  38205.410691  -9007.945995   -237.990902
PC11   2925.499495  20097.626145  19143.502378   -703.313681
PC12  10872.773533  25608.130980   2097.374842    635.515636
PC13 -16488.444095  -3872.779409 -22191.389646   -924.329626
PC14   2792.311757 -21541.975494 -17531.844261   -337.196832
PC19  15746.235225  21697.083728  -7654.158423   -938.479231
PC20   5789.711898  25841.807202   8723.665253   -903.565621
PC21   9119.690660 -14603.990460 -21967.967964   -851.010120
PC22  17594.232115   4798.696689 -21125.862202    455.095428
PC23 -27853.924386  -1472.889515   -697.111263   -457.331446
PC24   1105.924185 -16337.692469  22586.298180   -390.383886
PC25 -20634.934962 -11642.318609  14717.311223    849.953573
PC26  18987.445572 -11367.943906  16999.681056   -650.225886
PC27 -18631.588598  19905.308470  -5974.415099    641.691355
PC28 -20240.246943   7051.782558 -17869.416205    524.885456
PC29   9751.872133  14263.113523  21904.279625    613.201228
PC30  -5295.318930  24733.362131  11790.763464    462.550853
PC31  17726.496545 -20726.146663   5836.943545    791.740355
PC32  -9122.573014  14518.268216  22015.245845   -912.540795
PC33 -15899.308796 -21670.325139   7562.118146   -914.040196
PC34   5778.857175 -24864.687336 -11279.080421    960.807212
PC35  19658.761034  -5767.184975  18911.554061   -414.845905
PC36  19984.033687  12333.367458 -15065.502969    275.311571
PC37 -19997.511993  10458.008134 -16387.275504   -936.874773
PC38 -10915.470503 -13047.507752 -22138.471702    139.714588
PC39  27852.217695   1932.550088    329.632889   -893.044653
PC41 -17946.627413  -6193.131273  20514.327982   -942.324506
PC42  -4104.599434 -25379.690898 -10886.182494   -892.429571
PJ02 -21734.627723  21946.214711 -23905.951713     -0.371824
PJ03 -30133.325246  27612.640390  15879.786336     -4.829191
PJ04 -26312.671354  27763.831139  23214.992843      0.805387
EOF
